[
  {
    "COMMENT": "GENERATED VIA SPACETRACK.ORG API",
    "ORIGINATOR": "18 SPCS",
    "NORAD_CAT_ID": "48621",
    "OBJECT_NAME": "HAIYANG 2D",
    "OBJECT_TYPE": "PAYLOAD",
    "CLASSIFICATION_TYPE": "U",
    "INTLDES": "21043A",
    "EPOCH": "2023-07-12 18:01:40",
    "EPOCH_MICROSECONDS": "990368",
    "MEAN_MOTION": "13.83370374",
    "ECCENTRICITY": "0.0007906",
    "INCLINATION": "65.998",
    "RA_OF_ASC_NODE": "89.7161",
    "ARG_OF_PERICENTER": "261.8069",
    "MEAN_ANOMALY": "98.2103",
    "EPHEMERIS_TYPE": "0",
    "ELEMENT_SET_NO": "999",
    "REV_AT_EPOCH": "10852",
    "BSTAR": "0.0000048564",
    "MEAN_MOTION_DOT": "-0.00000076",
    "MEAN_MOTION_DDOT": "0",
    "FILE": "3956421",
    "TLE_LINE0": "0 HAIYANG 2D",
    "TLE_LINE1": "1 48621U 21043A   23193.75116887 -.00000076  00000-0  48564-5 0  9998",
    "TLE_LINE2": "2 48621  65.9980  89.7161 0007906 261.8069  98.2103 13.83370374108524",
    "OBJECT_ID": "2021-043A",
    "OBJECT_NUMBER": "48621",
    "SEMIMAJOR_AXIS": "7330.094",
    "PERIOD": "104.094",
    "APOGEE": "957.754",
    "PERIGEE": "946.164",
    "DECAYED": "0"
  },
  {
    "COMMENT": "GENERATED VIA SPACETRACK.ORG API",
    "ORIGINATOR": "18 SPCS",
    "NORAD_CAT_ID": "48621",
    "OBJECT_NAME": "HAIYANG 2D",
    "OBJECT_TYPE": "PAYLOAD",
    "CLASSIFICATION_TYPE": "U",
    "INTLDES": "21043A",
    "EPOCH": "2023-07-13 16:35:02",
    "EPOCH_MICROSECONDS": "685984",
    "MEAN_MOTION": "13.83370455",
    "ECCENTRICITY": "0.000789",
    "INCLINATION": "65.998",
    "RA_OF_ASC_NODE": "87.3763",
    "ARG_OF_PERICENTER": "261.9052",
    "MEAN_ANOMALY": "98.1121",
    "EPHEMERIS_TYPE": "0",
    "ELEMENT_SET_NO": "999",
    "REV_AT_EPOCH": "10865",
    "BSTAR": "0.0000090509",
    "MEAN_MOTION_DOT": "-0.00000071",
    "MEAN_MOTION_DDOT": "0",
    "FILE": "3957017",
    "TLE_LINE0": "0 HAIYANG 2D",
    "TLE_LINE1": "1 48621U 21043A   23194.69100331 -.00000071  00000-0  90509-5 0  9990",
    "TLE_LINE2": "2 48621  65.9980  87.3763 0007890 261.9052  98.1121 13.83370455108654",
    "OBJECT_ID": "2021-043A",
    "OBJECT_NUMBER": "48621",
    "SEMIMAJOR_AXIS": "7330.093",
    "PERIOD": "104.094",
    "APOGEE": "957.742",
    "PERIGEE": "946.175",
    "DECAYED": "0"
  },
  {
    "COMMENT": "GENERATED VIA SPACETRACK.ORG API",
    "ORIGINATOR": "18 SPCS",
    "NORAD_CAT_ID": "48621",
    "OBJECT_NAME": "HAIYANG 2D",
    "OBJECT_TYPE": "PAYLOAD",
    "CLASSIFICATION_TYPE": "U",
    "INTLDES": "21043A",
    "EPOCH": "2023-07-13 18:19:08",
    "EPOCH_MICROSECONDS": "968800",
    "MEAN_MOTION": "13.83370453",
    "ECCENTRICITY": "0.0007889",
    "INCLINATION": "65.998",
    "RA_OF_ASC_NODE": "87.1963",
    "ARG_OF_PERICENTER": "261.9079",
    "MEAN_ANOMALY": "98.1095",
    "EPHEMERIS_TYPE": "0",
    "ELEMENT_SET_NO": "999",
    "REV_AT_EPOCH": "10866",
    "BSTAR": "0.0000076188",
    "MEAN_MOTION_DOT": "-0.00000073",
    "MEAN_MOTION_DDOT": "0",
    "FILE": "3957142",
    "TLE_LINE0": "0 HAIYANG 2D",
    "TLE_LINE1": "1 48621U 21043A   23194.76329825 -.00000073  00000-0  76188-5 0  9998",
    "TLE_LINE2": "2 48621  65.9980  87.1963 0007889 261.9079  98.1095 13.83370453108660",
    "OBJECT_ID": "2021-043A",
    "OBJECT_NUMBER": "48621",
    "SEMIMAJOR_AXIS": "7330.093",
    "PERIOD": "104.094",
    "APOGEE": "957.741",
    "PERIGEE": "946.176",
    "DECAYED": "0"
  },
  {
    "COMMENT": "GENERATED VIA SPACETRACK.ORG API",
    "ORIGINATOR": "18 SPCS",
    "NORAD_CAT_ID": "48621",
    "OBJECT_NAME": "HAIYANG 2D",
    "OBJECT_TYPE": "PAYLOAD",
    "CLASSIFICATION_TYPE": "U",
    "INTLDES": "21043A",
    "EPOCH": "2023-07-13 23:31:27",
    "EPOCH_MICROSECONDS": "820704",
    "MEAN_MOTION": "13.83370461",
    "ECCENTRICITY": "0.000789",
    "INCLINATION": "65.998",
    "RA_OF_ASC_NODE": "86.6564",
    "ARG_OF_PERICENTER": "261.9298",
    "MEAN_ANOMALY": "98.0875",
    "EPHEMERIS_TYPE": "0",
    "ELEMENT_SET_NO": "999",
    "REV_AT_EPOCH": "10869",
    "BSTAR": "0.000010964",
    "MEAN_MOTION_DOT": "-0.00000069",
    "MEAN_MOTION_DDOT": "0",
    "FILE": "3957305",
    "TLE_LINE0": "0 HAIYANG 2D",
    "TLE_LINE1": "1 48621U 21043A   23194.98018311 -.00000069  00000-0  10964-4 0  9991",
    "TLE_LINE2": "2 48621  65.9980  86.6564 0007890 261.9298  98.0875 13.83370461108693",
    "OBJECT_ID": "2021-043A",
    "OBJECT_NUMBER": "48621",
    "SEMIMAJOR_AXIS": "7330.093",
    "PERIOD": "104.094",
    "APOGEE": "957.742",
    "PERIGEE": "946.175",
    "DECAYED": "0"
  },
  {
    "COMMENT": "GENERATED VIA SPACETRACK.ORG API",
    "ORIGINATOR": "18 SPCS",
    "NORAD_CAT_ID": "48621",
    "OBJECT_NAME": "HAIYANG 2D",
    "OBJECT_TYPE": "PAYLOAD",
    "CLASSIFICATION_TYPE": "U",
    "INTLDES": "21043A",
    "EPOCH": "2023-07-14 11:40:11",
    "EPOCH_MICROSECONDS": "802144",
    "MEAN_MOTION": "13.83370683",
    "ECCENTRICITY": "0.0007873",
    "INCLINATION": "65.998",
    "RA_OF_ASC_NODE": "85.3964",
    "ARG_OF_PERICENTER": "261.9219",
    "MEAN_ANOMALY": "98.0956",
    "EPHEMERIS_TYPE": "0",
    "ELEMENT_SET_NO": "999",
    "REV_AT_EPOCH": "10876",
    "BSTAR": "0.000056097",
    "MEAN_MOTION_DOT": "-0.00000019",
    "MEAN_MOTION_DDOT": "0",
    "FILE": "3957613",
    "TLE_LINE0": "0 HAIYANG 2D",
    "TLE_LINE1": "1 48621U 21043A   23195.48624771 -.00000019  00000-0  56097-4 0  9992",
    "TLE_LINE2": "2 48621  65.9980  85.3964 0007873 261.9219  98.0956 13.83370683108761",
    "OBJECT_ID": "2021-043A",
    "OBJECT_NUMBER": "48621",
    "SEMIMAJOR_AXIS": "7330.093",
    "PERIOD": "104.094",
    "APOGEE": "957.729",
    "PERIGEE": "946.187",
    "DECAYED": "0"
  },
  {
    "COMMENT": "GENERATED VIA SPACETRACK.ORG API",
    "ORIGINATOR": "18 SPCS",
    "NORAD_CAT_ID": "48621",
    "OBJECT_NAME": "HAIYANG 2D",
    "OBJECT_TYPE": "PAYLOAD",
    "CLASSIFICATION_TYPE": "U",
    "INTLDES": "21043A",
    "EPOCH": "2023-07-14 18:36:36",
    "EPOCH_MICROSECONDS": "931680",
    "MEAN_MOTION": "13.83370729",
    "ECCENTRICITY": "0.0007867",
    "INCLINATION": "65.998",
    "RA_OF_ASC_NODE": "84.6765",
    "ARG_OF_PERICENTER": "261.9129",
    "MEAN_ANOMALY": "98.1047",
    "EPHEMERIS_TYPE": "0",
    "ELEMENT_SET_NO": "999",
    "REV_AT_EPOCH": "10880",
    "BSTAR": "0.00005561",
    "MEAN_MOTION_DOT": "-0.0000002",
    "MEAN_MOTION_DDOT": "0",
    "FILE": "3957978",
    "TLE_LINE0": "0 HAIYANG 2D",
    "TLE_LINE1": "1 48621U 21043A   23195.77542745 -.00000020  00000-0  55610-4 0  9996",
    "TLE_LINE2": "2 48621  65.9980  84.6765 0007867 261.9129  98.1047 13.83370729108803",
    "OBJECT_ID": "2021-043A",
    "OBJECT_NUMBER": "48621",
    "SEMIMAJOR_AXIS": "7330.092",
    "PERIOD": "104.094",
    "APOGEE": "957.724",
    "PERIGEE": "946.191",
    "DECAYED": "0"
  },
  {
    "COMMENT": "GENERATED VIA SPACETRACK.ORG API",
    "ORIGINATOR": "18 SPCS",
    "NORAD_CAT_ID": "48621",
    "OBJECT_NAME": "HAIYANG 2D",
    "OBJECT_TYPE": "PAYLOAD",
    "CLASSIFICATION_TYPE": "U",
    "INTLDES": "21043A",
    "EPOCH": "2023-07-15 03:17:08",
    "EPOCH_MICROSECONDS": "348352",
    "MEAN_MOTION": "13.83370784",
    "ECCENTRICITY": "0.0007859",
    "INCLINATION": "65.998",
    "RA_OF_ASC_NODE": "83.7765",
    "ARG_OF_PERICENTER": "261.9627",
    "MEAN_ANOMALY": "98.0549",
    "EPHEMERIS_TYPE": "0",
    "ELEMENT_SET_NO": "999",
    "REV_AT_EPOCH": "10885",
    "BSTAR": "0.00006323",
    "MEAN_MOTION_DOT": "-0.00000012",
    "MEAN_MOTION_DDOT": "0",
    "FILE": "3958274",
    "TLE_LINE0": "0 HAIYANG 2D",
    "TLE_LINE1": "1 48621U 21043A   23196.13690218 -.00000012  00000-0  63230-4 0  9994",
    "TLE_LINE2": "2 48621  65.9980  83.7765 0007859 261.9627  98.0549 13.83370784108859",
    "OBJECT_ID": "2021-043A",
    "OBJECT_NUMBER": "48621",
    "SEMIMAJOR_AXIS": "7330.092",
    "PERIOD": "104.094",
    "APOGEE": "957.718",
    "PERIGEE": "946.197",
    "DECAYED": "0"
  },
  {
    "COMMENT": "GENERATED VIA SPACETRACK.ORG API",
    "ORIGINATOR": "18 SPCS",
    "NORAD_CAT_ID": "48621",
    "OBJECT_NAME": "HAIYANG 2D",
    "OBJECT_TYPE": "PAYLOAD",
    "CLASSIFICATION_TYPE": "U",
    "INTLDES": "21043A",
    "EPOCH": "2023-07-15 11:57:39",
    "EPOCH_MICROSECONDS": "762432",
    "MEAN_MOTION": "13.83370821",
    "ECCENTRICITY": "0.0007853",
    "INCLINATION": "65.998",
    "RA_OF_ASC_NODE": "82.8766",
    "ARG_OF_PERICENTER": "261.9764",
    "MEAN_ANOMALY": "98.0413",
    "EPHEMERIS_TYPE": "0",
    "ELEMENT_SET_NO": "999",
    "REV_AT_EPOCH": "10890",
    "BSTAR": "0.000063089",
    "MEAN_MOTION_DOT": "-0.00000012",
    "MEAN_MOTION_DDOT": "0",
    "FILE": "3958538",
    "TLE_LINE0": "0 HAIYANG 2D",
    "TLE_LINE1": "1 48621U 21043A   23196.49837688 -.00000012  00000-0  63089-4 0  9999",
    "TLE_LINE2": "2 48621  65.9980  82.8766 0007853 261.9764  98.0413 13.83370821108904",
    "OBJECT_ID": "2021-043A",
    "OBJECT_NUMBER": "48621",
    "SEMIMAJOR_AXIS": "7330.092",
    "PERIOD": "104.094",
    "APOGEE": "957.713",
    "PERIGEE": "946.201",
    "DECAYED": "0"
  }
]